{"type": "FeatureCollection", "features": [ {"type": "Feature", "properties": {"norad_id": 39778, "name": "IRIDIUM 33 DEB", "group": "iridium-33-debris", "lat": -77.64153422258721, "lon": -121.7390452846821, "alt_km": 722.7093140814859, "timestamp": "2025-12-16T19:34:24.653867+00:00", "meta": {"OBJECT_NAME": "IRIDIUM 33 DEB", "OBJECT_ID": "1997-051AAK", "EPOCH": "2025-12-15T02:45:26.160768", "MEAN_MOTION": 14.54282095, "ECCENTRICITY": 0.00077486, "INCLINATION": 86.3779, "RA_OF_ASC_NODE": 42.1948, "ARG_OF_PERICENTER": 34.959, "MEAN_ANOMALY": 325.2125, "EPHEMERIS_TYPE": 0, "CLASSIFICATION_TYPE": "U", "NORAD_CAT_ID": 39778, "ELEMENT_SET_NO": 999, "REV_AT_EPOCH": 60727, "BSTAR": 0.00058175197, "MEAN_MOTION_DOT": 2.487e-05, "MEAN_MOTION_DDOT": 0}, "tle": {"line1": "1 39778U 97051AAK 25349.11488612  .00002487  00000+0  58175-3 0  9999", "line2": "2 39778  86.3779  42.1948 0007748  34.9590 325.2125 14.54282095607272"}}, "geometry": {"type": "Point", "coordinates": [-121.7390452846821, -77.64153422258721]}}, {"type": "Feature", "properties": {"norad_id": 39781, "name": "IRIDIUM 33 DEB", "group": "iridium-33-debris", "lat": -61.1896970204847, "lon": 82.92558382612442, "alt_km": 710.2527076328279, "timestamp": "2025-12-16T19:34:24.653878+00:00", "meta": {"OBJECT_NAME": "IRIDIUM 33 DEB", "OBJECT_ID": "1997-051AAN", "EPOCH": "2025-12-15T00:15:44.903232", "MEAN_MOTION": 14.2070789, "ECCENTRICITY": 0.01756389, "INCLINATION": 86.371, "RA_OF_ASC_NODE": 257.043, "ARG_OF_PERICENTER": 266.0338, "MEAN_ANOMALY": 111.7662, "EPHEMERIS_TYPE": 0, "CLASSIFICATION_TYPE": "U", "NORAD_CAT_ID": 39781, "ELEMENT_SET_NO": 999, "REV_AT_EPOCH": 8139, "BSTAR": 0.0031777078, "MEAN_MOTION_DOT": 8.021e-05, "MEAN_MOTION_DDOT": 0}, "tle": {"line1": "1 39781U 97051AAN 25349.01093638  .00008021  00000+0  31777-2 0  9990", "line2": "2 39781  86.3710 257.0430 0175638 266.0338 111.7662 14.20707890 81397"}}, "geometry": {"type": "Point", "coordinates": [82.92558382612442, -61.1896970204847]}}, {"type": "Feature", "properties": {"norad_id": 40996, "name": "IRIDIUM 33 DEB", "group": "iridium-33-debris", "lat": 79.61941064957921, "lon": 19.8890570904259, "alt_km": 563.3780192656886, "timestamp": "2025-12-16T19:34:24.653888+00:00", "meta": {"OBJECT_NAME": "IRIDIUM 33 DEB", "OBJECT_ID": "1997-051ABJ", "EPOCH": "2025-12-15T11:47:42.645984", "MEAN_MOTION": 14.96438561, "ECCENTRICITY": 0.00116545, "INCLINATION": 86.3518, "RA_OF_ASC_NODE": 0.1244, "ARG_OF_PERICENTER": 56.0397, "MEAN_ANOMALY": 95.6858, "EPHEMERIS_TYPE": 0, "CLASSIFICATION_TYPE": "U", "NORAD_CAT_ID": 40996, "ELEMENT_SET_NO": 999, "REV_AT_EPOCH": 62529, "BSTAR": 0.0017261514, "MEAN_MOTION_DOT": 0.00019657, "MEAN_MOTION_DDOT": 0}, "tle": {"line1": "1 40996U 97051ABJ 25349.49146581  .00019657  00000+0  17262-2 0  9998", "line2": "2 40996  86.3518   0.1244 0011654  56.0397  95.6858 14.96438561625291"}}, "geometry": {"type": "Point", "coordinates": [19.8890570904259, 79.61941064957921]}}, {"type": "Feature", "properties": {"norad_id": 40998, "name": "IRIDIUM 33 DEB", "group": "iridium-33-debris", "lat": 36.256504579248286, "lon": -130.74394155792692, "alt_km": 737.0469599689923, "timestamp": "2025-12-16T19:34:24.653899+00:00", "meta": {"OBJECT_NAME": "IRIDIUM 33 DEB", "OBJECT_ID": "1997-051ABL", "EPOCH": "2025-12-14T22:36:58.178592", "MEAN_MOTION": 14.45106117, "ECCENTRICITY": 0.00094247, "INCLINATION": 86.383, "RA_OF_ASC_NODE": 52.7149, "ARG_OF_PERICENTER": 78.6428, "MEAN_ANOMALY": 45.8037, "EPHEMERIS_TYPE": 0, "CLASSIFICATION_TYPE": "U", "NORAD_CAT_ID": 40998, "ELEMENT_SET_NO": 999, "REV_AT_EPOCH": 6713, "BSTAR": 0.0004149731, "MEAN_MOTION_DOT": 1.471e-05, "MEAN_MOTION_DDOT": 0}, "tle": {"line1": "1 40998U 97051ABL 25348.94234003  .00001471  00000+0  41497-3 0  9999", "line2": "2 40998  86.3830  52.7149 0009424  78.6428  45.8037 14.45106117 67136"}}, "geometry": {"type": "Point", "coordinates": [-130.74394155792692, 36.256504579248286]}}, {"type": "Feature", "properties": {"norad_id": 46435, "name": "IRIDIUM 33 DEB", "group": "iridium-33-debris", "lat": -2.678151144521711, "lon": 12.370156462261214, "alt_km": 759.0491729701089, "timestamp": "2025-12-16T19:34:24.653909+00:00", "meta": {"OBJECT_NAME": "IRIDIUM 33 DEB", "OBJECT_ID": "1997-051ABN", "EPOCH": "2025-12-13T20:22:29.882208", "MEAN_MOTION": 14.32399442, "ECCENTRICITY": 0.0208315, "INCLINATION": 86.2839, "RA_OF_ASC_NODE": 193.4722, "ARG_OF_PERICENTER": 272.7642, "MEAN_ANOMALY": 103.0816, "EPHEMERIS_TYPE": 0, "CLASSIFICATION_TYPE": "U", "NORAD_CAT_ID": 46435, "ELEMENT_SET_NO": 999, "REV_AT_EPOCH": 7932, "BSTAR": 0.009141333, "MEAN_MOTION_DOT": 0.00031559, "MEAN_MOTION_DDOT": 0}, "tle": {"line1": "1 46435U 97051ABN 25347.84895697  .00031559  00000+0  91413-2 0  9993", "line2": "2 46435  86.2839 193.4722 0208315 272.7642 103.0816 14.32399442 79328"}}, "geometry": {"type": "Point", "coordinates": [12.370156462261214, -2.678151144521711]}}, {"type": "Feature", "properties": {"norad_id": 46734, "name": "IRIDIUM 33 DEB", "group": "iridium-33-debris", "lat": 24.484682659337505, "lon": 179.37052412939238, "alt_km": 778.1383630062965, "timestamp": "2025-12-16T19:34:24.653920+00:00", "meta": {"OBJECT_NAME": "IRIDIUM 33 DEB", "OBJECT_ID": "1997-051ABR", "EPOCH": "2025-12-14T19:23:13.551072", "MEAN_MOTION": 14.41903662, "ECCENTRICITY": 0.00382303, "INCLINATION": 86.2641, "RA_OF_ASC_NODE": 1.9566, "ARG_OF_PERICENTER": 328.7467, "MEAN_ANOMALY": 211.2629, "EPHEMERIS_TYPE": 0, "CLASSIFICATION_TYPE": "U", "NORAD_CAT_ID": 46734, "ELEMENT_SET_NO": 999, "REV_AT_EPOCH": 63040, "BSTAR": 0.00093372704, "MEAN_MOTION_DOT": 3.101e-05, "MEAN_MOTION_DDOT": 0}, "tle": {"line1": "1 46734U 97051ABR 25348.80779573  .00003101  00000+0  93373-3 0  9996", "line2": "2 46734  86.2641   1.9566 0038230 328.7467 211.2629 14.41903662630405"}}, "geometry": {"type": "Point", "coordinates": [179.37052412939238, 24.484682659337505]}}, {"type": "Feature", "properties": {"norad_id": 46965, "name": "IRIDIUM 33 DEB", "group": "iridium-33-debris", "lat": -22.63562110633552, "lon": 160.42210082505449, "alt_km": 703.3068506806294, "timestamp": "2025-12-16T19:34:24.653930+00:00", "meta": {"OBJECT_NAME": "IRIDIUM 33 DEB", "OBJECT_ID": "1997-051ABX", "EPOCH": "2025-12-13T10:45:20.165184", "MEAN_MOTION": 14.60307321, "ECCENTRICITY": 0.00180716, "INCLINATION": 86.336, "RA_OF_ASC_NODE": 340.3836, "ARG_OF_PERICENTER": 330.9129, "MEAN_ANOMALY": 180.178, "EPHEMERIS_TYPE": 0, "CLASSIFICATION_TYPE": "U", "NORAD_CAT_ID": 46965, "ELEMENT_SET_NO": 999, "REV_AT_EPOCH": 62278, "BSTAR": 0.0013493066, "MEAN_MOTION_DOT": 6.553e-05, "MEAN_MOTION_DDOT": 0}, "tle": {"line1": "1 46965U 97051ABX 25347.44815006  .00006553  00000+0  13493-2 0  9991", "line2": "2 46965  86.3360 340.3836 0018071 330.9129 180.1780 14.60307321622786"}}, "geometry": {"type": "Point", "coordinates": [160.42210082505449, -22.63562110633552]}}, {"type": "Feature", "properties": {"norad_id": 46971, "name": "IRIDIUM 33 DEB", "group": "iridium-33-debris", "lat": 62.49380816258946, "lon": 144.12802385072186, "alt_km": 568.3665288064149, "timestamp": "2025-12-16T19:34:24.653940+00:00", "meta": {"OBJECT_NAME": "IRIDIUM 33 DEB", "OBJECT_ID": "1997-051ACD", "EPOCH": "2025-12-15T06:26:47.255136", "MEAN_MOTION": 14.98190308, "ECCENTRICITY": 0.00029657, "INCLINATION": 86.3366, "RA_OF_ASC_NODE": 331.9236, "ARG_OF_PERICENTER": 297.7395, "MEAN_ANOMALY": 121.3901, "EPHEMERIS_TYPE": 0, "CLASSIFICATION_TYPE": "U", "NORAD_CAT_ID": 46971, "ELEMENT_SET_NO": 999, "REV_AT_EPOCH": 64268, "BSTAR": 0.0017441503, "MEAN_MOTION_DOT": 0.00020752, "MEAN_MOTION_DDOT": 0}, "tle": {"line1": "1 46971U 97051ACD 25349.26860249  .00020752  00000+0  17442-2 0  9994", "line2": "2 46971  86.3366 331.9236 0002965 297.7395 121.3901 14.98190308642688"}}, "geometry": {"type": "Point", "coordinates": [144.12802385072186, 62.49380816258946]}}, {"type": "Feature", "properties": {"norad_id": 46974, "name": "IRIDIUM 33 DEB", "group": "iridium-33-debris", "lat": 44.47892627957908, "lon": 107.14064646515504, "alt_km": 782.4523316148816, "timestamp": "2025-12-16T19:34:24.653950+00:00", "meta": {"OBJECT_NAME": "IRIDIUM 33 DEB", "OBJECT_ID": "1997-051ACG", "EPOCH": "2025-12-14T14:09:41.074272", "MEAN_MOTION": 14.44439168, "ECCENTRICITY": 0.00956816, "INCLINATION": 86.2983, "RA_OF_ASC_NODE": 104.4675, "ARG_OF_PERICENTER": 181.0289, "MEAN_ANOMALY": 179.0732, "EPHEMERIS_TYPE": 0, "CLASSIFICATION_TYPE": "U", "NORAD_CAT_ID": 46974, "ELEMENT_SET_NO": 999, "REV_AT_EPOCH": 57535, "BSTAR": 0.0034715296, "MEAN_MOTION_DOT": 0.00012692, "MEAN_MOTION_DDOT": 0}, "tle": {"line1": "1 46974U 97051ACG 25348.59005873  .00012692  00000+0  34715-2 0  9992", "line2": "2 46974  86.2983 104.4675 0095681 181.0289 179.0732 14.44439168575351"}}, "geometry": {"type": "Point", "coordinates": [107.14064646515504, 44.47892627957908]}}, {"type": "Feature", "properties": {"norad_id": 46979, "name": "IRIDIUM 33 DEB", "group": "iridium-33-debris", "lat": -5.691092087042909, "lon": 46.29477750556558, "alt_km": 618.7047730517334, "timestamp": "2025-12-16T19:34:24.653961+00:00", "meta": {"OBJECT_NAME": "IRIDIUM 33 DEB", "OBJECT_ID": "1997-051ACM", "EPOCH": "2025-12-08T11:38:51.411264", "MEAN_MOTION": 14.88966671, "ECCENTRICITY": 0.00280118, "INCLINATION": 86.3345, "RA_OF_ASC_NODE": 50.5282, "ARG_OF_PERICENTER": 237.8713, "MEAN_ANOMALY": 121.9794, "EPHEMERIS_TYPE": 0, "CLASSIFICATION_TYPE": "U", "NORAD_CAT_ID": 46979, "ELEMENT_SET_NO": 999, "REV_AT_EPOCH": 35365, "BSTAR": 0.0048738532, "MEAN_MOTION_DOT": 0.00046401, "MEAN_MOTION_DDOT": 0}, "tle": {"line1": "1 46979U 97051ACM 25342.48531726  .00046401  00000+0  48739-2 0  9996", "line2": "2 46979  86.3345  50.5282 0028011 237.8713 121.9794 14.88966671353652"}}, "geometry": {"type": "Point", "coordinates": [46.29477750556558, -5.691092087042909]}}]}